{"type": "FeatureCollection", "features": [ {"type": "Feature", "properties": {"norad_id": 64901, "name": "CO3D 4", "group": "resource", "lat": -64.73298600527032, "lon": 74.19738131140772, "alt_km": 512.193338409088, "timestamp": "2025-12-07T16:44:03.568957+00:00", "meta": {"OBJECT_NAME": "CO3D 4", "OBJECT_ID": "2025-156C", "EPOCH": "2025-12-06T22:03:58.707072", "MEAN_MOTION": 15.20191148, "ECCENTRICITY": 0.00010536, "INCLINATION": 97.4344, "RA_OF_ASC_NODE": 57.3701, "ARG_OF_PERICENTER": 228.7926, "MEAN_ANOMALY": 131.3219, "EPHEMERIS_TYPE": 0, "CLASSIFICATION_TYPE": "U", "NORAD_CAT_ID": 64901, "ELEMENT_SET_NO": 999, "REV_AT_EPOCH": 2032, "BSTAR": 0.00044593821, "MEAN_MOTION_DOT": 9.595e-05, "MEAN_MOTION_DDOT": 0}, "tle": {"line1": "1 64901U 25156C   25340.91942948  .00009595  00000+0  44594-3 0  9995", "line2": "2 64901  97.4344  57.3701 0001053 228.7926 131.3219 15.20191148 20320"}}, "geometry": {"type": "Point", "coordinates": [74.19738131140772, -64.73298600527032]}}, {"type": "Feature", "properties": {"norad_id": 64902, "name": "CO3D 2", "group": "resource", "lat": 62.32461718954622, "lon": -107.54761380422833, "alt_km": 498.6505218940956, "timestamp": "2025-12-07T16:44:03.568967+00:00", "meta": {"OBJECT_NAME": "CO3D 2", "OBJECT_ID": "2025-156D", "EPOCH": "2025-12-06T21:15:57.794976", "MEAN_MOTION": 15.20210595, "ECCENTRICITY": 7.915e-05, "INCLINATION": 97.4344, "RA_OF_ASC_NODE": 57.2359, "ARG_OF_PERICENTER": 99.0952, "MEAN_ANOMALY": 261.0373, "EPHEMERIS_TYPE": 0, "CLASSIFICATION_TYPE": "U", "NORAD_CAT_ID": 64902, "ELEMENT_SET_NO": 999, "REV_AT_EPOCH": 2031, "BSTAR": 2.8087489e-05, "MEAN_MOTION_DOT": 5.41e-06, "MEAN_MOTION_DDOT": 0}, "tle": {"line1": "1 64902U 25156D   25340.88608559  .00000541  00000+0  28087-4 0  9991", "line2": "2 64902  97.4344  57.2359 0000791  99.0952 261.0373 15.20210595 20314"}}, "geometry": {"type": "Point", "coordinates": [-107.54761380422833, 62.32461718954622]}}, {"type": "Feature", "properties": {"norad_id": 64903, "name": "CO3D 1", "group": "resource", "lat": 63.132439978130094, "lon": -107.02799293049671, "alt_km": 498.4524434406685, "timestamp": "2025-12-07T16:44:03.568978+00:00", "meta": {"OBJECT_NAME": "CO3D 1", "OBJECT_ID": "2025-156E", "EPOCH": "2025-12-06T21:16:11.137728", "MEAN_MOTION": 15.20207827, "ECCENTRICITY": 9.566e-05, "INCLINATION": 97.4344, "RA_OF_ASC_NODE": 57.2362, "ARG_OF_PERICENTER": 97.127, "MEAN_ANOMALY": 263.0074, "EPHEMERIS_TYPE": 0, "CLASSIFICATION_TYPE": "U", "NORAD_CAT_ID": 64903, "ELEMENT_SET_NO": 999, "REV_AT_EPOCH": 2031, "BSTAR": 0.00020916819, "MEAN_MOTION_DOT": 4.464e-05, "MEAN_MOTION_DDOT": 0}, "tle": {"line1": "1 64903U 25156E   25340.88624002  .00004464  00000+0  20917-3 0  9994", "line2": "2 64903  97.4344  57.2362 0000956  97.1270 263.0074 15.20207827 20318"}}, "geometry": {"type": "Point", "coordinates": [-107.02799293049671, 63.132439978130094]}}, {"type": "Feature", "properties": {"norad_id": 66514, "name": "SENTINEL-6B", "group": "resource", "lat": -47.595053580943734, "lon": 22.057532311137113, "alt_km": 1316.390858941617, "timestamp": "2025-12-07T16:44:03.568988+00:00", "meta": {"OBJECT_NAME": "SENTINEL-6B", "OBJECT_ID": "2025-264A", "EPOCH": "2025-12-05T07:31:22.416096", "MEAN_MOTION": 12.85877769, "ECCENTRICITY": 0.00115488, "INCLINATION": 66.0393, "RA_OF_ASC_NODE": 177.917, "ARG_OF_PERICENTER": 268.4031, "MEAN_ANOMALY": 91.5664, "EPHEMERIS_TYPE": 0, "CLASSIFICATION_TYPE": "U", "NORAD_CAT_ID": 66514, "ELEMENT_SET_NO": 999, "REV_AT_EPOCH": 233, "BSTAR": 0.00030181714, "MEAN_MOTION_DOT": 1.3e-07, "MEAN_MOTION_DDOT": 0}, "tle": {"line1": "1 66514U 25264A   25339.31345389  .00000013  00000+0  30182-3 0  9999", "line2": "2 66514  66.0393 177.9170 0011548 268.4031  91.5664 12.85877769  2335"}}, "geometry": {"type": "Point", "coordinates": [22.057532311137113, -47.595053580943734]}}]}